ONEWEB-0525             
1 54143U 22138AG  24101.94786070  .00000087  00000+0  18568-3 0  9997
2 54143  87.9094 103.6502 0001598  86.7094 273.4222 13.19725139 71674
ONEWEB-0526             
1 54144U 22138AH  24102.51174766  .00000018  00000+0  12316-4 0  9995
2 54144  87.9093 103.5342 0001818  92.4216 267.7124 13.19724077 72599
ONEWEB-0529             
1 54145U 22138AJ  24102.51490851 -.00000020  00000+0 -81269-4 0  9990
2 54145  87.9101 103.5436 0001545  90.9070 269.2240 13.19724426 72619
ONEWEB-0531             
1 54146U 22138AK  24102.42258807  .00000079  00000+0  16231-3 0  9992
2 54146  87.9167  72.9732 0002915 100.3598 259.7864 13.20770965 75006
ONEWEB-0535             
1 54147U 22138AL  24102.54807903 -.00000004  00000+0 -42907-4 0  9993
2 54147  87.9092 103.5254 0002283  90.1142 270.0253 13.19724301 72638
ONEWEB-0536             
1 54148U 22138AM  24102.18269490  .00000077  00000+0  15622-3 0  9998
2 54148  87.9166  73.0709 0003070  88.2504 271.8980 13.20770346 74968
GSLV R/B                
1 54149U 22138AN  24101.84182805  .00002906  00000+0  29477-3 0  9991
2 54149  87.3852  39.5179 0025215 151.3563 208.9057 14.90297698 79755
ONEWEB-0527             
1 54642U 22166A   24102.54237337  .00000062  00000+0  11920-3 0  9994
2 54642  87.9300  42.5523 0001925  84.6213 275.5141 13.21824193 66744
